[
    {
        "Altitude(m)": 605459.0450286411,
        "Argument of Periapsis(deg)": 0.0,
        "Eccentricity": 0.0,
        "Inclination(deg)": 60.0,
        "Latitude(deg)": 27.988266701685937,
        "Longitude(deg)": 167.79863519892396,
        "Mean Anomaly(deg)": 32.72730000000001,
        "RAAN(deg)": 250.00000000000003,
        "Satellite Name": "Test1 1102",
        "Satellite Number": 1102,
        "Semi-Major Axis(m)": 6980739.136638005,
        "Time(s)": 0
    },
    {
        "Altitude(m)": 605535.8360555748,
        "Argument of Periapsis(deg)": 0.00010418945913296404,
        "Eccentricity": 0.0,
        "Inclination(deg)": 60.0,
        "Latitude(deg)": 28.501395608171983,
        "Longitude(deg)": 168.15558154698417,
        "Mean Anomaly(deg)": 33.34740614546182,
        "RAAN(deg)": 249.99957995086027,
        "Satellite Name": "Test1 1102",
        "Satellite Number": 1102,
        "Semi-Major Axis(m)": 6980739.136638005,
        "Time(s)": 10
    }
]